[{"OBJECT_NAME":"TEVEL2-2","OBJECT_ID":"2025-052K","EPOCH":"2026-03-09T15:33:48.895776","MEAN_MOTION":15.30343745,"ECCENTRICITY":0.0004693,"INCLINATION":97.3987,"RA_OF_ASC_NODE":324.77,"ARG_OF_PERICENTER":105.793,"MEAN_ANOMALY":254.3828,"EPHEMERIS_TYPE":0,"CLASSIFICATION_TYPE":"U","NORAD_CAT_ID":63219,"ELEMENT_SET_NO":999,"REV_AT_EPOCH":5485,"BSTAR":0.00069428,"MEAN_MOTION_DOT":0.00020339,"MEAN_MOTION_DDOT":0},{"OBJECT_NAME":"STARLINK-36180","OBJECT_ID":"2025-299N","EPOCH":"2026-03-09T07:05:29.051232","MEAN_MOTION":15.28423882,"ECCENTRICITY":0.00011024,"INCLINATION":42.9978,"RA_OF_ASC_NODE":171.4194,"ARG_OF_PERICENTER":319.3332,"MEAN_ANOMALY":40.7437,"EPHEMERIS_TYPE":0,"CLASSIFICATION_TYPE":"U","NORAD_CAT_ID":67114,"ELEMENT_SET_NO":999,"REV_AT_EPOCH":1305,"BSTAR":0.00095247551,"MEAN_MOTION_DOT":0.00026728,"MEAN_MOTION_DDOT":0}]
